{
"type": "FeatureCollection",
"name": "Schulen_privat_2023_04_17",
"crs": { "type": "name", "properties": { "name": "urn:ogc:def:crs:EPSG::25833" } },
"features": [
{ "type": "Feature", "properties": { "fid": 64, "bsn": "03P03", "name": "Schulen Christburg Campus Prenzlauer Berg", "schulart": "Kombinierte allgemein bildende Schule", "traeger": "privat", "schultyp": "Privatschule", "bezirk": "Pankow", "ortsteil": "Prenzlauer Berg", "plz": "10405", "strasse": "Christburger Straße", "hausnr": "14", "telefon": "+49 30 4431237170", "fax": "+49 30 4431237179", "email": "Geschaeftsfuehrung@Christburg-Campus.de", "internet": "http://www.christburg-campus.de" }, "geometry": { "type": "Point", "coordinates": [ 393391.799999999988358, 5821731.5 ] } },
{ "type": "Feature", "properties": { "fid": 65, "bsn": "03P08", "name": "Katholisches Schulzentrum Edith Stein", "schulart": "Kombinierte berufliche Schule", "traeger": "privat", "schultyp": "Privatschule", "bezirk": "Pankow", "ortsteil": "Prenzlauer Berg", "plz": "10405", "strasse": "Greifswalder Straße", "hausnr": "18", "telefon": "+49 30 4243930", "fax": "+49 30 42439326", "email": "KS-edithstein@t-online.de", "internet": "https://schulzentrum-edithstein.de" }, "geometry": { "type": "Point", "coordinates": [ 393311.5, 5821231.200000000186265 ] } },
{ "type": "Feature", "properties": { "fid": 66, "bsn": "03P10", "name": "Katholische Theresienschule (Gymnasium)", "schulart": "Gymnasium", "traeger": "privat", "schultyp": "Privatschule", "bezirk": "Pankow", "ortsteil": "Weißensee", "plz": "13086", "strasse": "Behaimstraße", "hausnr": "29", "telefon": "+49 30 9246425", "fax": "+49 30 9246262", "email": "sekretariat@ksth.schulerzbistum.de", "internet": "http://www.Theresienschule.de" }, "geometry": { "type": "Point", "coordinates": [ 394672.0, 5823400.900000000372529 ] } },
{ "type": "Feature", "properties": { "fid": 67, "bsn": "03P11", "name": "Stephanus-Schule", "schulart": "Förderschwerp. \"Geistige Entwicklung\"", "traeger": "privat", "schultyp": "Privatschule", "bezirk": "Pankow", "ortsteil": "Weißensee", "plz": "13086", "strasse": "Albertinenstraße", "hausnr": "20", "telefon": "+49 30 96249751", "fax": "+49 30 96249758", "email": "katrin.leisterer@stephanus.org", "internet": "http://www.stephanus-schule.de" }, "geometry": { "type": "Point", "coordinates": [ 395520.799999999988358, 5823519.200000000186265 ] } },
{ "type": "Feature", "properties": { "fid": 68, "bsn": "03P12", "name": "Evangelische Schule Pankow (Grundschule)", "schulart": "Grundschule", "traeger": "privat", "schultyp": "Privatschule", "bezirk": "Pankow", "ortsteil": "Pankow", "plz": "13187", "strasse": "Galenusstraße", "hausnr": "60", "telefon": "+49 30 47498940", "fax": "+49 30 47498949", "email": "info@ev-schule-pankow.de", "internet": "http://www.ev-schule-pankow.de" }, "geometry": { "type": "Point", "coordinates": [ 393171.700000000011642, 5826757.099999999627471 ] } },
{ "type": "Feature", "properties": { "fid": 69, "bsn": "03P13", "name": "Freie Schule Pankow (Integrierte Sekundarschule)", "schulart": "Integrierte Sekundarschule", "traeger": "privat", "schultyp": "Privatschule", "bezirk": "Pankow", "ortsteil": "Niederschönhausen", "plz": "13156", "strasse": "Grabbeallee", "hausnr": "66", "telefon": "+49 30 4733083", "fax": "+49 30 47300129", "email": "info@freie-schule-pankow.de", "internet": "https://www.freie-schule-pankow.de" }, "geometry": { "type": "Point", "coordinates": [ 391483.400000000023283, 5826525.200000000186265 ] } },
{ "type": "Feature", "properties": { "fid": 70, "bsn": "03P14", "name": "Freie Grundschule Pfefferwerk", "schulart": "Grundschule", "traeger": "privat", "schultyp": "Privatschule", "bezirk": "Pankow", "ortsteil": "Prenzlauer Berg", "plz": "10439", "strasse": "Schönfließer Straße", "hausnr": "7", "telefon": "+49 30 44383285", "fax": null, "email": "grundschule@pfefferwerk.de", "internet": "http://freie-grundschule.de" }, "geometry": { "type": "Point", "coordinates": [ 392121.299999999988358, 5823784.200000000186265 ] } },
{ "type": "Feature", "properties": { "fid": 71, "bsn": "03P15", "name": "AUCOTEAM GmbH", "schulart": "Kombinierte berufliche Schule", "traeger": "privat", "schultyp": "Privatschule", "bezirk": "Pankow", "ortsteil": "Prenzlauer Berg", "plz": "10407", "strasse": "Storkower Straße", "hausnr": "115A", "telefon": "+49 30 42188661", "fax": "+49 30 4286259", "email": "berufsfachschule@aucoteam.de", "internet": "http://www.aucoteam-berufsfachschule.de" }, "geometry": { "type": "Point", "coordinates": [ 395146.299999999988358, 5821722.400000000372529 ] } },
{ "type": "Feature", "properties": { "fid": 72, "bsn": "03P18", "name": "dreieins-Grundschule Berlin-Pankow", "schulart": "Grundschule", "traeger": "privat", "schultyp": "Privatschule", "bezirk": "Pankow", "ortsteil": "Weißensee", "plz": "13088", "strasse": "Bizetstraße", "hausnr": "64", "telefon": "+49 30 92092220", "fax": "+49 30 92092931", "email": "grundschule-pankow@dreieins.org", "internet": "http://www.dreieins.org/pankow" }, "geometry": { "type": "Point", "coordinates": [ 395312.5, 5823091.799999999813735 ] } },
{ "type": "Feature", "properties": { "fid": 73, "bsn": "03P20", "name": "SchuleEins (Gemeinschaftsschule)", "schulart": "Gemeinschaftsschule", "traeger": "privat", "schultyp": "Privatschule", "bezirk": "Pankow", "ortsteil": "Pankow", "plz": "13187", "strasse": "Berliner Straße", "hausnr": "120", "telefon": "+49 30 475966930", "fax": "+49 30 4759669320", "email": "sekretariat.speicher@schuleeins.de", "internet": "https://pankowerfruechtchen.de/schuleeins" }, "geometry": { "type": "Point", "coordinates": [ 392388.700000000011642, 5825452.700000000186265 ] } },
{ "type": "Feature", "properties": { "fid": 74, "bsn": "03P21", "name": "Freie Integrative Montessori Grundschule Pankow", "schulart": "Grundschule", "traeger": "privat", "schultyp": "Privatschule", "bezirk": "Pankow", "ortsteil": "Pankow", "plz": "13187", "strasse": "Hadlichstraße", "hausnr": "2", "telefon": "+49 30 50019130", "fax": "+49 30 500191929", "email": "montessori-schule-pankow@karuna-ev.de", "internet": "http://www.montessori-pädagogik-pankow.de" }, "geometry": { "type": "Point", "coordinates": [ 392459.799999999988358, 5825441.299999999813735 ] } },
{ "type": "Feature", "properties": { "fid": 75, "bsn": "03P22", "name": "Klax-Gemeinschaftsschule", "schulart": "Gemeinschaftsschule", "traeger": "privat", "schultyp": "Privatschule", "bezirk": "Pankow", "ortsteil": "Pankow", "plz": "13189", "strasse": "Neumannstraße", "hausnr": "13A", "telefon": "+49 30 92109646", "fax": "+49 30 34745169", "email": "info@klax-schule.de", "internet": "https://klax.de/de/schule" }, "geometry": { "type": "Point", "coordinates": [ 393054.700000000011642, 5824632.0 ] } },
{ "type": "Feature", "properties": { "fid": 76, "bsn": "03P23", "name": "Freie Naturschule im StadtGUT (Grundschule)", "schulart": "Grundschule", "traeger": "privat", "schultyp": "Privatschule", "bezirk": "Pankow", "ortsteil": "Blankenfelde", "plz": "13159", "strasse": "Hauptstraße", "hausnr": "26", "telefon": "+49 30 40058302", "fax": null, "email": "kontakt@freie-naturschule-stadtgut.de", "internet": "http://www.freie-naturschule-stadtgut.de" }, "geometry": { "type": "Point", "coordinates": [ 391180.599999999976717, 5830950.400000000372529 ] } },
{ "type": "Feature", "properties": { "fid": 77, "bsn": "03P24", "name": "Ting-Schule (Integrierte Sekundarschule)", "schulart": "Integrierte Sekundarschule", "traeger": "privat", "schultyp": "Privatschule", "bezirk": "Pankow", "ortsteil": "Weißensee", "plz": "13088", "strasse": "Berliner Allee", "hausnr": "128", "telefon": "+49 30 62922068", "fax": null, "email": "ting@ting-schule.de", "internet": "https://ting-schule.de" }, "geometry": { "type": "Point", "coordinates": [ 395747.599999999976717, 5823397.400000000372529 ] } },
{ "type": "Feature", "properties": { "fid": 78, "bsn": "03P26", "name": "Lauder Beth-Zion Schule (Gemeinschaftsschule)", "schulart": "Gemeinschaftsschule", "traeger": "privat", "schultyp": "Privatschule", "bezirk": "Pankow", "ortsteil": "Prenzlauer Berg", "plz": "10405", "strasse": "Rykestraße", "hausnr": "53", "telefon": "+49 30 440131620", "fax": "+49 30 440131629", "email": "sekretariat@team.lauderschule.de", "internet": "https://lauderschule.de" }, "geometry": { "type": "Point", "coordinates": [ 392768.799999999988358, 5821716.200000000186265 ] } },
{ "type": "Feature", "properties": { "fid": 79, "bsn": "03P27", "name": "Klax Berufsakademie", "schulart": "Kombinierte berufliche Schule", "traeger": "privat", "schultyp": "Privatschule", "bezirk": "Pankow", "ortsteil": "Weißensee", "plz": "13086", "strasse": "Langhansstraße", "hausnr": "74B", "telefon": "+49 30 6665470", "fax": "+49 30 47796204", "email": "info@klax-ausbildung.de", "internet": "http://www.klax-ausbildung.de" }, "geometry": { "type": "Point", "coordinates": [ 393606.400000000023283, 5823956.700000000186265 ] } },
{ "type": "Feature", "properties": { "fid": 80, "bsn": "03P28", "name": "Platanus Schule Berlin (Gemeinschaftsschule)", "schulart": "Gemeinschaftsschule", "traeger": "privat", "schultyp": "Privatschule", "bezirk": "Pankow", "ortsteil": "Pankow", "plz": "13187", "strasse": "Berliner Straße", "hausnr": "12", "telefon": "+49 30 49004880", "fax": "+49 30 490048829", "email": "info@platanus-schule.de", "internet": "https://www.platanus-schule.de" }, "geometry": { "type": "Point", "coordinates": [ 392343.099999999976717, 5825444.799999999813735 ] } },
{ "type": "Feature", "properties": { "fid": 81, "bsn": "03P30", "name": "Freie Waldorfschule am Prenzlauer Berg", "schulart": "Freie Waldorfschule", "traeger": "privat", "schultyp": "Privatschule", "bezirk": "Pankow", "ortsteil": "Prenzlauer Berg", "plz": "10409", "strasse": "Gürtelstraße", "hausnr": "16", "telefon": "+49 30 42082010", "fax": "+49 30 420820117", "email": "weiss@schulemachen.com", "internet": "http://www.schulemachen.com" }, "geometry": { "type": "Point", "coordinates": [ 395159.799999999988358, 5822696.200000000186265 ] } },
{ "type": "Feature", "properties": { "fid": 82, "bsn": "03P32", "name": "Montessori-Gemeinschaftsschule Berlin-Buch", "schulart": "Gemeinschaftsschule", "traeger": "privat", "schultyp": "Privatschule", "bezirk": "Pankow", "ortsteil": "Buch", "plz": "13125", "strasse": "Wiltbergstraße", "hausnr": "90", "telefon": "+49 30 911464900", "fax": "+49 30 911464909", "email": "info@karuna-mgbb.de", "internet": "https://www.montessori-berlin-buch.de" }, "geometry": { "type": "Point", "coordinates": [ 397640.200000000011642, 5833384.200000000186265 ] } },
{ "type": "Feature", "properties": { "fid": 83, "bsn": "03P33", "name": "Evangelische Schule Berlin Buch (Grundschule)", "schulart": "Grundschule", "traeger": "privat", "schultyp": "Privatschule", "bezirk": "Pankow", "ortsteil": "Buch", "plz": "13125", "strasse": "Wiltbergstraße", "hausnr": "50", "telefon": "+49 30 31958200", "fax": "+49 30 31958199", "email": "buero@ev-schule-buch.de", "internet": "http://www.ev-schule-buch.de" }, "geometry": { "type": "Point", "coordinates": [ 397850.900000000023283, 5833130.0 ] } },
{ "type": "Feature", "properties": { "fid": 84, "bsn": "03P36", "name": "WETEK - Fachschule für Sozialpädagogik", "schulart": "Fachschule", "traeger": "privat", "schultyp": "Privatschule", "bezirk": "Pankow", "ortsteil": "Prenzlauer Berg", "plz": "10119", "strasse": "Christinenstraße", "hausnr": "18", "telefon": "+49 30 44383360", "fax": "+49 30 44383369", "email": "fachschule@wetek.de", "internet": "http://www.wetek.de" }, "geometry": { "type": "Point", "coordinates": [ 392179.400000000023283, 5821407.200000000186265 ] } },
{ "type": "Feature", "properties": { "fid": 85, "bsn": "03P37", "name": "Berlin Bilingual School (Integrierte Sekundarschule)", "schulart": "Integrierte Sekundarschule", "traeger": "privat", "schultyp": "Privatschule", "bezirk": "Pankow", "ortsteil": "Pankow", "plz": "13189", "strasse": "Granitzstraße", "hausnr": "38A", "telefon": "+49 30 44383248", "fax": null, "email": "info@berlin-bilingual.de", "internet": "https://www.berlin-bilingual-school.de" }, "geometry": { "type": "Point", "coordinates": [ 393158.400000000023283, 5825602.900000000372529 ] } },
{ "type": "Feature", "properties": { "fid": 86, "bsn": "03P38", "name": "S.K.O.U.T. - Fachschule für Sozialpädagogik", "schulart": "Fachschule", "traeger": "privat", "schultyp": "Privatschule", "bezirk": "Pankow", "ortsteil": "Prenzlauer Berg", "plz": "10405", "strasse": "Immanuelkirchstraße", "hausnr": "10", "telefon": "+49 30 484947111", "fax": "+49 30 484947123", "email": "info@s-k-o-u-t.de", "internet": "http://www.s-k-o-u-t.de" }, "geometry": { "type": "Point", "coordinates": [ 393163.5, 5821384.5 ] } },
{ "type": "Feature", "properties": { "fid": 87, "bsn": "03P39", "name": "Stephanus-Grundschule", "schulart": "Grundschule", "traeger": "privat", "schultyp": "Privatschule", "bezirk": "Pankow", "ortsteil": "Weißensee", "plz": "13086", "strasse": "Parkstraße", "hausnr": "22", "telefon": "+49 30 96249231", "fax": null, "email": "mathilda.blasczyk@stephanus.org", "internet": "https://www.stephanus.org" }, "geometry": { "type": "Point", "coordinates": [ 395384.900000000023283, 5823676.5 ] } },
{ "type": "Feature", "properties": { "fid": 88, "bsn": "03P40", "name": "SAfS - Spektrum Akademie für Sozialpädagogik (Kein Schulbetrieb)", "schulart": "Fachschule", "traeger": "privat", "schultyp": "Privatschule", "bezirk": "Pankow", "ortsteil": "Heinersdorf", "plz": "13089", "strasse": "Tino-Schwierzina-Straße", "hausnr": "32", "telefon": "+49 30 24531905", "fax": null, "email": "info@safs-berlin.de", "internet": "https://www.spektrum-akademie.berlin/erzieher-ausbildung.html" }, "geometry": { "type": "Point", "coordinates": [ 393814.799999999988358, 5824487.900000000372529 ] } },
{ "type": "Feature", "properties": { "fid": 89, "bsn": "03P41", "name": "Naturschule am Brosepark", "schulart": "Grundschule", "traeger": "privat", "schultyp": "Privatschule", "bezirk": "Pankow", "ortsteil": "Niederschönhausen", "plz": "13156", "strasse": "Dietzgenstraße", "hausnr": "49", "telefon": "+49 17634341136", "fax": null, "email": "kontakt@naturschule-im-stadtgut.de", "internet": "https://www.naturschule-am-brosepark.de" }, "geometry": { "type": "Point", "coordinates": [ 391754.5, 5827264.599999999627471 ] } },
{ "type": "Feature", "properties": { "fid": 90, "bsn": "03P42", "name": "Weiterdenker-Fachschule für Sozialpädagogik", "schulart": "Fachschule", "traeger": "privat", "schultyp": "Privatschule", "bezirk": "Pankow", "ortsteil": "Prenzlauer Berg", "plz": "10435", "strasse": "Danziger Straße", "hausnr": "50", "telefon": "+49 30 868001030", "fax": null, "email": "kontakt@ifbw.info", "internet": "http://www.kubibe.de" }, "geometry": { "type": "Point", "coordinates": [ 392846.099999999976717, 5822221.5 ] } },
{ "type": "Feature", "properties": { "fid": 91, "bsn": "03P43", "name": "Pfefferwerk - Fachschule für Sozialpädagogik", "schulart": "Fachschule", "traeger": "privat", "schultyp": "Privatschule", "bezirk": "Pankow", "ortsteil": "Prenzlauer Berg", "plz": "10119", "strasse": "Christinenstraße", "hausnr": "18", "telefon": "+49 30 44383721", "fax": "+49 30 44383100", "email": "info@pfefferwerk-akademie.de", "internet": "http://www.pfefferwerk-akademie.de" }, "geometry": { "type": "Point", "coordinates": [ 392179.400000000023283, 5821397.200000000186265 ] } },
{ "type": "Feature", "properties": { "fid": 92, "bsn": "03P44", "name": "St. Hildegard Akademie gGmbH", "schulart": "Berufsfachschule", "traeger": "privat", "schultyp": "Privatschule", "bezirk": "Pankow", "ortsteil": "Wilhelmsruh", "plz": "13158", "strasse": "Hertzstraße", "hausnr": "67", "telefon": "+49 30 41206760", "fax": "+49 30 412067615", "email": "info@hildegard-akademie-berlin.de", "internet": "https://hildegard-akademie-berlin.de" }, "geometry": { "type": "Point", "coordinates": [ 388636.0, 5827524.099999999627471 ] } },
{ "type": "Feature", "properties": { "fid": 93, "bsn": "03P45", "name": "PepperMont Freie Sekundarschule für ganzheitliches Lernen", "schulart": "Integrierte Sekundarschule", "traeger": "privat", "schultyp": "Privatschule", "bezirk": "Pankow", "ortsteil": "Prenzlauer Berg", "plz": "10409", "strasse": "Greifswalder Straße", "hausnr": "88", "telefon": "+49 30 44383962", "fax": "+49 30 44383108", "email": "peppermont@pfefferwerk.de", "internet": "https://www.pfefferwerk.de" }, "geometry": { "type": "Point", "coordinates": [ 394303.200000000011642, 5822510.0 ] } }
]
}
