{
"type": "FeatureCollection",
"name": "Schulen_öffentlich_2023_04_17",
"crs": { "type": "name", "properties": { "name": "urn:ogc:def:crs:EPSG::25833" } },
"features": [
{ "type": "Feature", "properties": { "fid": 1, "bsn": "03A04", "name": "Abendgymnasium Prenzlauer Berg", "schulart": "Abend-Gymnasium", "traeger": "öffentlich", "schultyp": "Andere Schule", "bezirk": "Pankow", "ortsteil": "Prenzlauer Berg", "plz": "10439", "strasse": "Driesener Straße", "hausnr": "22", "telefon": "+49 30 4254218", "fax": "+49 30 4250121", "email": "mail@abendgymnasium-berlin.de", "internet": "http://www.abendgymnasium-berlin.de" }, "geometry": { "type": "Point", "coordinates": [ 391903.599999999976717, 5823631.799999999813735 ] } },
{ "type": "Feature", "properties": { "fid": 2, "bsn": "03B02", "name": "Berufliche Schule für Sozialwesen Pankow", "schulart": "Kombinierte berufliche Schule", "traeger": "öffentlich", "schultyp": "Berufsschule", "bezirk": "Pankow", "ortsteil": "Rosenthal", "plz": "13158", "strasse": "Erbeskopfweg", "hausnr": "6", "telefon": "+49 30 50019910", "fax": "+49 30 50019924", "email": "sekretariat@schule-sozialwesen-pankow.de", "internet": "https://www.schule-sozialwesen-pankow.de" }, "geometry": { "type": "Point", "coordinates": [ 391646.700000000011642, 5828254.900000000372529 ] } },
{ "type": "Feature", "properties": { "fid": 3, "bsn": "03B04", "name": "Brillat-Savarin-Schule (OSZ Gastgewerbe)", "schulart": "Oberstufenzentrum", "traeger": "öffentlich", "schultyp": "Berufsschule", "bezirk": "Pankow", "ortsteil": "Weißensee", "plz": "13088", "strasse": "Buschallee", "hausnr": "23A", "telefon": "+49 30 9142660", "fax": "+49 30 914266220", "email": "sekretariat@osz-gastgewerbe.de", "internet": "https://www.osz-gastgewerbe.de" }, "geometry": { "type": "Point", "coordinates": [ 396654.200000000011642, 5823624.799999999813735 ] } },
{ "type": "Feature", "properties": { "fid": 4, "bsn": "03B06", "name": "Konrad-Zuse-Schule", "schulart": "Berufsschule mit sonderpäd. Aufgaben", "traeger": "öffentlich", "schultyp": "Berufsschule", "bezirk": "Pankow", "ortsteil": "Niederschönhausen", "plz": "13156", "strasse": "Hermann-Hesse-Straße", "hausnr": "34", "telefon": "+49 30 91609411", "fax": "+49 30 9165691", "email": "sekretariat@kzsb.de", "internet": "https://www.konrad-zuse-schule-berlin.de" }, "geometry": { "type": "Point", "coordinates": [ 391310.299999999988358, 5826693.5 ] } },
{ "type": "Feature", "properties": { "fid": 5, "bsn": "03B07", "name": "Elinor-Ostrom-Schule (OSZ Bürowirtschaft und Dienstleistungen)", "schulart": "Oberstufenzentrum", "traeger": "öffentlich", "schultyp": "Berufsschule", "bezirk": "Pankow", "ortsteil": "Prenzlauer Berg", "plz": "10409", "strasse": "Mandelstraße", "hausnr": "6", "telefon": "+49 30 42185413", "fax": "+49 30 42185412", "email": "info@oszeos.de", "internet": "http://www.oszeos.de" }, "geometry": { "type": "Point", "coordinates": [ 394307.799999999988358, 5822877.799999999813735 ] } },
{ "type": "Feature", "properties": { "fid": 6, "bsn": "03B08", "name": "Staatliche Ballett- und Artistikschule Berlin", "schulart": "Kombinierte allg./berufl. Schule", "traeger": "öffentlich", "schultyp": "Berufsschule", "bezirk": "Pankow", "ortsteil": "Prenzlauer Berg", "plz": "10409", "strasse": "Erich-Weinert-Straße", "hausnr": "103", "telefon": "+49 30 4057790", "fax": "+49 30 40577919", "email": "schulleitung@ballettschule-berlin.de", "internet": "http://www.ballettschule-berlin.de" }, "geometry": { "type": "Point", "coordinates": [ 393935.299999999988358, 5822912.200000000186265 ] } },
{ "type": "Feature", "properties": { "fid": 7, "bsn": "03B10", "name": "Max-Bill-Schule (OSZ Planen, Bauen, Gestalten)", "schulart": "Oberstufenzentrum", "traeger": "öffentlich", "schultyp": "Berufsschule", "bezirk": "Pankow", "ortsteil": "Weißensee", "plz": "13086", "strasse": "Gustav-Adolf-Straße", "hausnr": "66", "telefon": "+49 30 912052175", "fax": "+49 30 912052174", "email": "03B10@03B10.schule.berlin.de", "internet": "https://www.max-bill-schule.net" }, "geometry": { "type": "Point", "coordinates": [ 394815.700000000011642, 5824390.0 ] } },
{ "type": "Feature", "properties": { "fid": 8, "bsn": "03G01", "name": "Schule am Hamburger Platz (Grundschule)", "schulart": "Grundschule", "traeger": "öffentlich", "schultyp": "Grundschule", "bezirk": "Pankow", "ortsteil": "Weißensee", "plz": "13086", "strasse": "Gustav-Adolf-Straße", "hausnr": "21", "telefon": "+49 30 9246762", "fax": "+49 30 92091818", "email": "info@schule-am-hamburger-platz.de", "internet": "http://www.schule-am-hamburger-platz.de" }, "geometry": { "type": "Point", "coordinates": [ 394027.799999999988358, 5823792.599999999627471 ] } },
{ "type": "Feature", "properties": { "fid": 9, "bsn": "03G02", "name": "Heinrich-Roller-Grundschule", "schulart": "Grundschule", "traeger": "öffentlich", "schultyp": "Grundschule", "bezirk": "Pankow", "ortsteil": "Prenzlauer Berg", "plz": "10405", "strasse": "Heinrich-Roller-Straße", "hausnr": "18", "telefon": "+49 30 4425674", "fax": "+49 30 44039188", "email": "sekretariat@roller.schule.berlin.de", "internet": "http://www.Heinrich-Roller-Grundschule.de" }, "geometry": { "type": "Point", "coordinates": [ 393067.400000000023283, 5821222.400000000372529 ] } },
{ "type": "Feature", "properties": { "fid": 10, "bsn": "03G03", "name": "Grundschule am Kollwitzplatz", "schulart": "Grundschule", "traeger": "öffentlich", "schultyp": "Grundschule", "bezirk": "Pankow", "ortsteil": "Prenzlauer Berg", "plz": "10435", "strasse": "Knaackstraße", "hausnr": "67", "telefon": "+49 30 44377100", "fax": "+49 30 44377108", "email": "Sekretariat@gsak.schule.berlin.de", "internet": "http://www.gs-am-Kollwitzplatz.de" }, "geometry": { "type": "Point", "coordinates": [ 392492.299999999988358, 5822033.700000000186265 ] } },
{ "type": "Feature", "properties": { "fid": 11, "bsn": "03G04", "name": "Grundschule an der Marie", "schulart": "Grundschule", "traeger": "öffentlich", "schultyp": "Grundschule", "bezirk": "Pankow", "ortsteil": "Prenzlauer Berg", "plz": "10405", "strasse": "Christburger Straße", "hausnr": "7", "telefon": "+49 30 40301298", "fax": "+49 30 24627804", "email": "Sekretariat@marie.schule.berlin.de", "internet": "http://www.schule-an-der-Marie.de" }, "geometry": { "type": "Point", "coordinates": [ 393221.900000000023283, 5821827.900000000372529 ] } },
{ "type": "Feature", "properties": { "fid": 12, "bsn": "03G05", "name": "Homer-Grundschule", "schulart": "Grundschule", "traeger": "öffentlich", "schultyp": "Grundschule", "bezirk": "Pankow", "ortsteil": "Prenzlauer Berg", "plz": "10407", "strasse": "Pasteurstraße", "hausnr": "10", "telefon": "+49 30 4250575", "fax": "+49 30 4250177", "email": "post@homergs.de", "internet": "http://www.homer-grundschule.de" }, "geometry": { "type": "Point", "coordinates": [ 393672.0, 5821570.299999999813735 ] } },
{ "type": "Feature", "properties": { "fid": 13, "bsn": "03G06", "name": "Bötzow-Grundschule", "schulart": "Grundschule", "traeger": "öffentlich", "schultyp": "Grundschule", "bezirk": "Pankow", "ortsteil": "Prenzlauer Berg", "plz": "10407", "strasse": "John-Schehr-Straße", "hausnr": "38", "telefon": "+49 30 42851032", "fax": "+49 30 42851034", "email": "info@boetzow-grundschule.de", "internet": "http://www.boetzow-grundschule.de" }, "geometry": { "type": "Point", "coordinates": [ 394139.700000000011642, 5821692.299999999813735 ] } },
{ "type": "Feature", "properties": { "fid": 14, "bsn": "03G08", "name": "Grundschule am Planetarium", "schulart": "Grundschule", "traeger": "öffentlich", "schultyp": "Grundschule", "bezirk": "Pankow", "ortsteil": "Prenzlauer Berg", "plz": "10405", "strasse": "Ella-Kay-Straße", "hausnr": "47", "telefon": "+49 30 4250874", "fax": "+49 30 42081125", "email": "03G08@03G08.schule.berlin.de", "internet": "http://www.gsap.de" }, "geometry": { "type": "Point", "coordinates": [ 393588.900000000023283, 5822411.299999999813735 ] } },
{ "type": "Feature", "properties": { "fid": 15, "bsn": "03G09", "name": "Thomas-Mann-Grundschule", "schulart": "Grundschule", "traeger": "öffentlich", "schultyp": "Grundschule", "bezirk": "Pankow", "ortsteil": "Prenzlauer Berg", "plz": "10437", "strasse": "Greifenhagener Straße", "hausnr": "58", "telefon": "+49 30 4457761", "fax": "+49 30 4455590", "email": "03G09@03G09.schule.berlin.de", "internet": "http://www.thomas-mann-grundschule.de" }, "geometry": { "type": "Point", "coordinates": [ 392515.799999999988358, 5823028.900000000372529 ] } },
{ "type": "Feature", "properties": { "fid": 16, "bsn": "03G10", "name": "Grundschule am Hohen Feld", "schulart": "Grundschule", "traeger": "öffentlich", "schultyp": "Grundschule", "bezirk": "Pankow", "ortsteil": "Karow", "plz": "13125", "strasse": "Bedeweg", "hausnr": "1", "telefon": "+49 30 948006220", "fax": "+49 30 948006233", "email": "sekretariat@gsahf.schule.berlin.de", "internet": "http://grundschule-amhohenfeld.de" }, "geometry": { "type": "Point", "coordinates": [ 398193.5, 5830499.900000000372529 ] } },
{ "type": "Feature", "properties": { "fid": 17, "bsn": "03G11", "name": "Schule am Falkplatz (Grundschule)", "schulart": "Grundschule", "traeger": "öffentlich", "schultyp": "Grundschule", "bezirk": "Pankow", "ortsteil": "Prenzlauer Berg", "plz": "10437", "strasse": "Gleimstraße", "hausnr": "49", "telefon": "+49 30 443875010", "fax": "+49 30 44387539", "email": "schulleiterin@schule-am-falkplatz.berlin", "internet": "http://www.schule-am-falkplatz.berlin" }, "geometry": { "type": "Point", "coordinates": [ 391931.0, 5823095.799999999813735 ] } },
{ "type": "Feature", "properties": { "fid": 18, "bsn": "03G12", "name": "Paul-Lincke-Grundschule", "schulart": "Grundschule", "traeger": "öffentlich", "schultyp": "Grundschule", "bezirk": "Pankow", "ortsteil": "Prenzlauer Berg", "plz": "10409", "strasse": "Pieskower Weg", "hausnr": "39", "telefon": "+49 30 42850876", "fax": "+49 30 42850877", "email": "03G12@03G12.schule.berlin.de", "internet": "http://paul-lincke-schule.de" }, "geometry": { "type": "Point", "coordinates": [ 394600.700000000011642, 5822358.200000000186265 ] } },
{ "type": "Feature", "properties": { "fid": 19, "bsn": "03G13", "name": "Grundschule in Rosenthal", "schulart": "Grundschule", "traeger": "öffentlich", "schultyp": "Grundschule", "bezirk": "Pankow", "ortsteil": "Rosenthal", "plz": "13158", "strasse": "Kastanienallee", "hausnr": "59", "telefon": "+49 30 91699480", "fax": "+49 30 91699481", "email": "info@grundschule-rosenthal.de", "internet": "http://www.grundschule-rosenthal.de" }, "geometry": { "type": "Point", "coordinates": [ 389996.599999999976717, 5828026.200000000186265 ] } },
{ "type": "Feature", "properties": { "fid": 20, "bsn": "03G14", "name": "Bornholmer Grundschule", "schulart": "Grundschule", "traeger": "öffentlich", "schultyp": "Grundschule", "bezirk": "Pankow", "ortsteil": "Prenzlauer Berg", "plz": "10439", "strasse": "Ibsenstraße", "hausnr": "17", "telefon": "+49 30 4458763", "fax": "+49 30 44719469", "email": "bornholmer14@t-online.de", "internet": "http://www.bornholmer-grundschule.de" }, "geometry": { "type": "Point", "coordinates": [ 392051.5, 5824029.299999999813735 ] } },
{ "type": "Feature", "properties": { "fid": 21, "bsn": "03G15", "name": "Schule am Senefelderplatz", "schulart": "Grundschule", "traeger": "öffentlich", "schultyp": "Grundschule", "bezirk": "Pankow", "ortsteil": "Prenzlauer Berg", "plz": "10435", "strasse": "Schönhauser Allee", "hausnr": "165", "telefon": "+49 30 4468900", "fax": "+49 30 44689013", "email": "03G15@03G15.schule.berlin.de", "internet": "http://www.schule-am-senefelderplatz.de" }, "geometry": { "type": "Point", "coordinates": [ 392291.299999999988358, 5821729.400000000372529 ] } },
{ "type": "Feature", "properties": { "fid": 22, "bsn": "03G16", "name": "Grundschule am Teutoburger Platz", "schulart": "Grundschule", "traeger": "öffentlich", "schultyp": "Grundschule", "bezirk": "Pankow", "ortsteil": "Prenzlauer Berg", "plz": "10119", "strasse": "Templiner Straße", "hausnr": "1", "telefon": "+49 30 44358050", "fax": "+49 30 44358051", "email": "schulleitung@teute.schule.berlin.de", "internet": "http://www.schule-am-teute.de" }, "geometry": { "type": "Point", "coordinates": [ 392096.900000000023283, 5821577.700000000186265 ] } },
{ "type": "Feature", "properties": { "fid": 23, "bsn": "03G17", "name": "Grundschule am Weißen See", "schulart": "Grundschule", "traeger": "öffentlich", "schultyp": "Grundschule", "bezirk": "Pankow", "ortsteil": "Weißensee", "plz": "13088", "strasse": "Falkenberger Straße", "hausnr": "31", "telefon": "+49 30 9269462", "fax": "+49 30 34353387", "email": "03G17@03G17.schule.berlin.de", "internet": "http://grundschule-am-weissen-see.de" }, "geometry": { "type": "Point", "coordinates": [ 396729.799999999988358, 5823750.599999999627471 ] } },
{ "type": "Feature", "properties": { "fid": 24, "bsn": "03G18", "name": "Picasso-Grundschule", "schulart": "Grundschule", "traeger": "öffentlich", "schultyp": "Grundschule", "bezirk": "Pankow", "ortsteil": "Weißensee", "plz": "13088", "strasse": "Gounodstraße", "hausnr": "71", "telefon": "+49 30 9606660", "fax": "+49 30 96066621", "email": "sekretariat@picasso.schule.berlin.de", "internet": "http://www.picasso-grundschule.de" }, "geometry": { "type": "Point", "coordinates": [ 395703.099999999976717, 5823058.099999999627471 ] } },
{ "type": "Feature", "properties": { "fid": 25, "bsn": "03G20", "name": "Grundschule im Moselviertel", "schulart": "Grundschule", "traeger": "öffentlich", "schultyp": "Grundschule", "bezirk": "Pankow", "ortsteil": "Weißensee", "plz": "13088", "strasse": "Brodenbacher Weg", "hausnr": "31", "telefon": "+49 30 9250976", "fax": "+49 30 92375652", "email": "sekretariat@mosel.schule.berlin.de", "internet": "http://www.moselschule.de" }, "geometry": { "type": "Point", "coordinates": [ 396752.400000000023283, 5824339.400000000372529 ] } },
{ "type": "Feature", "properties": { "fid": 26, "bsn": "03G21", "name": "Grundschule unter den Bäumen", "schulart": "Grundschule", "traeger": "öffentlich", "schultyp": "Grundschule", "bezirk": "Pankow", "ortsteil": "Blankenburg", "plz": "13129", "strasse": "Alt-Blankenburg", "hausnr": "26", "telefon": "+49 30 4743325", "fax": "+49 30 47487607", "email": "gudbaeumen@t-online.de", "internet": "http://www.gudbaeumen.de" }, "geometry": { "type": "Point", "coordinates": [ 395306.400000000023283, 5828022.900000000372529 ] } },
{ "type": "Feature", "properties": { "fid": 27, "bsn": "03G22", "name": "Grundschule am Wasserturm", "schulart": "Grundschule", "traeger": "öffentlich", "schultyp": "Grundschule", "bezirk": "Pankow", "ortsteil": "Heinersdorf", "plz": "13089", "strasse": "Tino-Schwierzina-Straße", "hausnr": "66", "telefon": "+49 30 4720176", "fax": "+49 30 47033360", "email": "schulleitung@grundschule-am-wasserturm.com", "internet": "https://grundschule-am-wasserturm.com" }, "geometry": { "type": "Point", "coordinates": [ 394048.400000000023283, 5825073.700000000186265 ] } },
{ "type": "Feature", "properties": { "fid": 28, "bsn": "03G23", "name": "Grundschule Alt-Karow", "schulart": "Grundschule", "traeger": "öffentlich", "schultyp": "Grundschule", "bezirk": "Pankow", "ortsteil": "Karow", "plz": "13125", "strasse": "Bahnhofstraße", "hausnr": "32", "telefon": "+49 30 94794970", "fax": "+49 30 94794975", "email": "grundschule-alt-karow@gmx.de", "internet": "http://www.grundschule-alt-karow.de" }, "geometry": { "type": "Point", "coordinates": [ 397054.700000000011642, 5829927.299999999813735 ] } },
{ "type": "Feature", "properties": { "fid": 29, "bsn": "03G24", "name": "Grundschule im Panketal", "schulart": "Grundschule", "traeger": "öffentlich", "schultyp": "Grundschule", "bezirk": "Pankow", "ortsteil": "Karow", "plz": "13125", "strasse": "Achillesstraße", "hausnr": "31", "telefon": "+49 30 94794920", "fax": "+49 30 9479492231", "email": "gs-im-panketal@gmx.de", "internet": "http://www.grundschule-im-panketal.de" }, "geometry": { "type": "Point", "coordinates": [ 397527.0, 5831168.200000000186265 ] } },
{ "type": "Feature", "properties": { "fid": 30, "bsn": "03G25", "name": "Carl-Humann-Grundschule", "schulart": "Grundschule", "traeger": "öffentlich", "schultyp": "Grundschule", "bezirk": "Pankow", "ortsteil": "Prenzlauer Berg", "plz": "10439", "strasse": "Scherenbergstraße", "hausnr": "7", "telefon": "+49 30 4441580", "fax": "+49 30 44719045", "email": "humann-grundschule@gmx.de", "internet": "http://www.carl-humann-grundschule.de" }, "geometry": { "type": "Point", "coordinates": [ 392980.700000000011642, 5823477.799999999813735 ] } },
{ "type": "Feature", "properties": { "fid": 31, "bsn": "03G26", "name": "Arnold-Zweig-Grundschule", "schulart": "Grundschule", "traeger": "öffentlich", "schultyp": "Grundschule", "bezirk": "Pankow", "ortsteil": "Pankow", "plz": "13187", "strasse": "Wollankstraße", "hausnr": "131", "telefon": "+49 30 49790970", "fax": "+49 30 49790979", "email": "sekretariat@arnold-zweig.schule.berlin.de", "internet": "http://www.arnold-zweig-grundschule.com" }, "geometry": { "type": "Point", "coordinates": [ 391584.599999999976717, 5825373.099999999627471 ] } },
{ "type": "Feature", "properties": { "fid": 32, "bsn": "03G27", "name": "Elizabeth-Shaw-Grundschule", "schulart": "Grundschule", "traeger": "öffentlich", "schultyp": "Grundschule", "bezirk": "Pankow", "ortsteil": "Pankow", "plz": "13187", "strasse": "Grunowstraße", "hausnr": "17", "telefon": "+49 30 49301190", "fax": "+49 30 49301199", "email": "Sekretariat@shaw.schule.berlin.de", "internet": "http://shaw-grundschule.de" }, "geometry": { "type": "Point", "coordinates": [ 392260.299999999988358, 5825404.099999999627471 ] } },
{ "type": "Feature", "properties": { "fid": 33, "bsn": "03G28", "name": "Hasengrund-Schule (Grundschule)", "schulart": "Grundschule", "traeger": "öffentlich", "schultyp": "Grundschule", "bezirk": "Pankow", "ortsteil": "Niederschönhausen", "plz": "13156", "strasse": "Hermann-Hesse-Straße", "hausnr": "48", "telefon": "+49 30 47402940", "fax": "+49 30 47402941", "email": "sekretariat@hasengrund.schule.berlin.de", "internet": "http://hasengrund.edupage.org" }, "geometry": { "type": "Point", "coordinates": [ 391209.099999999976717, 5826536.599999999627471 ] } },
{ "type": "Feature", "properties": { "fid": 34, "bsn": "03G29", "name": "Grundschule Am Sandhaus", "schulart": "Grundschule", "traeger": "öffentlich", "schultyp": "Grundschule", "bezirk": "Pankow", "ortsteil": "Buch", "plz": "13125", "strasse": "Wiltbergstraße", "hausnr": "37", "telefon": "+49 30 9490046", "fax": "+49 30 9490036", "email": "sekretariat@sandhaus.schule.berlin.de", "internet": "https://gs-am-sandhaus.de" }, "geometry": { "type": "Point", "coordinates": [ 397911.400000000023283, 5832987.400000000372529 ] } },
{ "type": "Feature", "properties": { "fid": 35, "bsn": "03G32", "name": "Grundschule an den Buchen", "schulart": "Grundschule", "traeger": "öffentlich", "schultyp": "Grundschule", "bezirk": "Pankow", "ortsteil": "Niederschönhausen", "plz": "13156", "strasse": "Wilhelm-Wolff-Straße", "hausnr": "19", "telefon": "+49 30 91699460", "fax": "+49 30 91699461", "email": "sekretariat-gsbuchen@gmx.de", "internet": "http://www.gs-buchen.de" }, "geometry": { "type": "Point", "coordinates": [ 391242.200000000011642, 5826715.5 ] } },
{ "type": "Feature", "properties": { "fid": 36, "bsn": "03G33", "name": "Jeanne-Barez-Schule (Grundschule)", "schulart": "Grundschule", "traeger": "öffentlich", "schultyp": "Grundschule", "bezirk": "Pankow", "ortsteil": "Französisch Buchholz", "plz": "13127", "strasse": "Hauptstraße", "hausnr": "66", "telefon": "+49 30 47498931", "fax": "+49 30 47498938", "email": "sekretariat@jeaba.de", "internet": "http://www.jeanne-barez-schule.de" }, "geometry": { "type": "Point", "coordinates": [ 393952.700000000011642, 5829390.200000000186265 ] } },
{ "type": "Feature", "properties": { "fid": 37, "bsn": "03G34", "name": "Mendel-Grundschule", "schulart": "Grundschule", "traeger": "öffentlich", "schultyp": "Grundschule", "bezirk": "Pankow", "ortsteil": "Pankow", "plz": "13187", "strasse": "Stiftsweg", "hausnr": "3", "telefon": "+49 30 47607910", "fax": "+49 30 476079911", "email": "mendel-schule@t-online.de", "internet": "https://www.mendel-grundschule.de" }, "geometry": { "type": "Point", "coordinates": [ 392634.400000000023283, 5826037.700000000186265 ] } },
{ "type": "Feature", "properties": { "fid": 38, "bsn": "03G35", "name": "Platanengrundschule", "schulart": "Grundschule", "traeger": "öffentlich", "schultyp": "Grundschule", "bezirk": "Pankow", "ortsteil": "Blankenfelde", "plz": "13159", "strasse": "Hauptstraße", "hausnr": "20", "telefon": "+49 30 9131120", "fax": "+49 30 47411973", "email": "platanengrundschule@gmx.de", "internet": "https://www.platanengrundschule.de" }, "geometry": { "type": "Point", "coordinates": [ 390971.900000000023283, 5831016.5 ] } },
{ "type": "Feature", "properties": { "fid": 39, "bsn": "03G36", "name": "Elisabeth-Christinen-Grundschule", "schulart": "Grundschule", "traeger": "öffentlich", "schultyp": "Grundschule", "bezirk": "Pankow", "ortsteil": "Prenzlauer Berg", "plz": "13156", "strasse": "Buchholzer Straße", "hausnr": "3", "telefon": "+49 30 40058920", "fax": "+49 30 40058921", "email": "Sekretariat@03G36.schule.berlin.de", "internet": "https://ecg.schule" }, "geometry": { "type": "Point", "coordinates": [ 392102.924999999988358, 5827033.043999999761581 ] } },
{ "type": "Feature", "properties": { "fid": 40, "bsn": "03G37", "name": "Klecks-Grundschule", "schulart": "Grundschule", "traeger": "öffentlich", "schultyp": "Grundschule", "bezirk": "Pankow", "ortsteil": "Pankow", "plz": "13187", "strasse": "Brixener Straße", "hausnr": "40", "telefon": "+49 30 47901920", "fax": "+49 30 47901921", "email": "sekretariat@klecks-grund.schule.berlin.de", "internet": "https://klecksgrundschule.de" }, "geometry": { "type": "Point", "coordinates": [ 392049.099999999976717, 5824484.700000000186265 ] } },
{ "type": "Feature", "properties": { "fid": 41, "bsn": "03G38", "name": "Grundschule im Blumenviertel", "schulart": "Grundschule", "traeger": "öffentlich", "schultyp": "Grundschule", "bezirk": "Pankow", "ortsteil": "Prenzlauer Berg", "plz": "10407", "strasse": "Syringenplatz", "hausnr": "30", "telefon": "+49 30 42850870", "fax": "+49 30 42850872", "email": "03G38@03G38.schule.berlin.de", "internet": "http://www.grundschule-im-blumenviertel.de" }, "geometry": { "type": "Point", "coordinates": [ 395382.799999999988358, 5821680.099999999627471 ] } },
{ "type": "Feature", "properties": { "fid": 42, "bsn": "03G39", "name": "Grundschule Wolkenstein", "schulart": "Grundschule", "traeger": "öffentlich", "schultyp": "Grundschule", "bezirk": "Pankow", "ortsteil": "Pankow", "plz": "13189", "strasse": "Neumannstraße", "hausnr": "65", "telefon": "+49 30 47901890", "fax": "+49 30 47901891", "email": "sekretariat@wolkenstein.schule.berlin.de", "internet": "http://www.gs-wolkenstein.de" }, "geometry": { "type": "Point", "coordinates": [ 392927.599999999976717, 5825062.200000000186265 ] } },
{ "type": "Feature", "properties": { "fid": 43, "bsn": "03G40", "name": "Schule am Birkenhof", "schulart": "Grundschule", "traeger": "öffentlich", "schultyp": "Grundschule", "bezirk": "Pankow", "ortsteil": "Französisch Buchholz", "plz": "13127", "strasse": "Arnouxstraße", "hausnr": "18", "telefon": "+49 30 474029100", "fax": "+49 30 47411448", "email": "sekretariat@birkenhof.schule.berlin.de", "internet": "http://www.schule-am-birkenhof.de" }, "geometry": { "type": "Point", "coordinates": [ 393295.700000000011642, 5829849.5 ] } },
{ "type": "Feature", "properties": { "fid": 44, "bsn": "03G41", "name": "Trelleborg-Schule (Grundschule)", "schulart": "Grundschule", "traeger": "öffentlich", "schultyp": "Grundschule", "bezirk": "Pankow", "ortsteil": "Pankow", "plz": "13189", "strasse": "Eschengraben", "hausnr": "40", "telefon": "+49 30 479018611", "fax": "+49 30 479018618", "email": "trelleborg-schule@t-online.de", "internet": "http://www.trelleborg-schule.de" }, "geometry": { "type": "Point", "coordinates": [ 393024.200000000011642, 5824054.5 ] } },
{ "type": "Feature", "properties": { "fid": 45, "bsn": "03G43", "name": "Grundschule Wilhelmsruh", "schulart": "Grundschule", "traeger": "öffentlich", "schultyp": "Grundschule", "bezirk": "Pankow", "ortsteil": "Wilhelmsruh", "plz": "13158", "strasse": "Lessingstraße", "hausnr": "44", "telefon": "+49 30 91645320", "fax": "+49 30 91645328", "email": "sekretariat@grundschule-wilhelmsruh.de", "internet": "http://www.grundschule-wilhelmsruh.de" }, "geometry": { "type": "Point", "coordinates": [ 389204.299999999988358, 5827949.099999999627471 ] } },
{ "type": "Feature", "properties": { "fid": 46, "bsn": "03G44", "name": "Georg-Zacharias-Grundschule", "schulart": "Grundschule", "traeger": "öffentlich", "schultyp": "Grundschule", "bezirk": "Pankow", "ortsteil": "Weißensee", "plz": "13088", "strasse": "Sulzfelder Straße", "hausnr": "15", "telefon": "+49 30 9269089", "fax": "+49 30 9252784", "email": "44.Grundschule-Pankow@web.de", "internet": "https://georg-zacharias.be.schule.de" }, "geometry": { "type": "Point", "coordinates": [ 396611.799999999988358, 5823504.0 ] } },
{ "type": "Feature", "properties": { "fid": 47, "bsn": "03G45", "name": "Grundschule im Hofgarten", "schulart": "Grundschule", "traeger": "öffentlich", "schultyp": "Grundschule", "bezirk": "Pankow", "ortsteil": "Prenzlauer Berg", "plz": "10435", "strasse": "Danziger Straße", "hausnr": "50", "telefon": "+49 30 40301657", "fax": "+49 30 40301667", "email": "sekretariat@hofgarten.schule.berlin.de", "internet": "http://www.grundschuleimhofgarten.de" }, "geometry": { "type": "Point", "coordinates": [ 392846.099999999976717, 5822231.5 ] } },
{ "type": "Feature", "properties": { "fid": 48, "bsn": "03G46", "name": "Grundschule im Eliashof", "schulart": "Grundschule", "traeger": "öffentlich", "schultyp": "Grundschule", "bezirk": "Pankow", "ortsteil": "Prenzlauer Berg", "plz": "10437", "strasse": "Senefelderstraße", "hausnr": "6", "telefon": "+49 30 40504800", "fax": "+49 30 40301889", "email": "sekretariat@03g46.schule.berlin.de", "internet": "https://www.grundschule-im-eliashof.de" }, "geometry": { "type": "Point", "coordinates": [ 393031.799999999988358, 5822357.799999999813735 ] } },
{ "type": "Feature", "properties": { "fid": 49, "bsn": "03G47", "name": "47. Schule (Grundschule)", "schulart": "Grundschule", "traeger": "öffentlich", "schultyp": "Grundschule", "bezirk": "Pankow", "ortsteil": "Pankow", "plz": "13187", "strasse": "Mendelstraße", "hausnr": "54", "telefon": "+49 30 47607930", "fax": "+49 30 47607931", "email": "info@schuleanderstrauchwiese.de", "internet": "http://www.schuleanderstrauchwiese.de" }, "geometry": { "type": "Point", "coordinates": [ 392786.799999999988358, 5826526.599999999627471 ] } },
{ "type": "Feature", "properties": { "fid": 50, "bsn": "03G48", "name": "48. Schule (Grundschule)", "schulart": "Grundschule", "traeger": "öffentlich", "schultyp": "Grundschule", "bezirk": "Pankow", "ortsteil": "Prenzlauer Berg", "plz": "10407", "strasse": "Conrad-Blenkle-Straße", "hausnr": "20", "telefon": "+49 30 43770573", "fax": null, "email": "03G48@03G48.schule.berlin.de", "internet": "http://www.03g48.de" }, "geometry": { "type": "Point", "coordinates": [ 394815.400000000023283, 5821028.900000000372529 ] } },
{ "type": "Feature", "properties": { "fid": 51, "bsn": "03G49", "name": "49. Schule (Grundschule)", "schulart": "Grundschule", "traeger": "öffentlich", "schultyp": "Grundschule", "bezirk": "Pankow", "ortsteil": "Weißensee", "plz": "13086", "strasse": "Rennbahnstraße", "hausnr": "45", "telefon": "+49 30 92091798", "fax": "+49 30 92091934", "email": "03G49@03G49.schule.berlin.de", "internet": "http://www.03g49.de" }, "geometry": { "type": "Point", "coordinates": [ 395204.5, 5824855.700000000186265 ] } },
{ "type": "Feature", "properties": { "fid": 52, "bsn": "03G50", "name": "50. Schule (Grundschule)", "schulart": "Grundschule", "traeger": "öffentlich", "schultyp": "Grundschule", "bezirk": "Pankow", "ortsteil": "Buch", "plz": "13125", "strasse": "Karower Chaussee", "hausnr": "97", "telefon": "+49 30", "fax": "+49 30", "email": "03G50@03G50.schule.berlin.de", "internet": null }, "geometry": { "type": "Point", "coordinates": [ 398336.5, 5831722.0 ] } },
{ "type": "Feature", "properties": { "fid": 53, "bsn": "03K01", "name": "Kurt-Schwitters-Schule", "schulart": "Integrierte Sekundarschule", "traeger": "öffentlich", "schultyp": "Integrierte Sekundarschule", "bezirk": "Pankow", "ortsteil": "Prenzlauer Berg", "plz": "10405", "strasse": "Greifswalder Straße", "hausnr": "25", "telefon": "+49 30 42847841", "fax": "+49 30 42847869", "email": "ksoberlin.cids@t-online.de", "internet": "http://www.kurt-schwitters.schule" }, "geometry": { "type": "Point", "coordinates": [ 393383.200000000011642, 5821327.299999999813735 ] } },
{ "type": "Feature", "properties": { "fid": 54, "bsn": "03K02", "name": "Kurt-Tucholsky-Schule (Integrierte Sekundarschule)", "schulart": "Integrierte Sekundarschule", "traeger": "öffentlich", "schultyp": "Integrierte Sekundarschule", "bezirk": "Pankow", "ortsteil": "Pankow", "plz": "13189", "strasse": "Neumannstraße", "hausnr": "9", "telefon": "+49 30 4799000", "fax": "+49 30 479900122", "email": "sekretariat1@kto-berlin.de", "internet": "http://www.kto-berlin.de" }, "geometry": { "type": "Point", "coordinates": [ 393116.099999999976717, 5824241.900000000372529 ] } },
{ "type": "Feature", "properties": { "fid": 55, "bsn": "03K03", "name": "Konrad-Duden-Schule (Integrierte Sekundarschule)", "schulart": "Integrierte Sekundarschule", "traeger": "öffentlich", "schultyp": "Integrierte Sekundarschule", "bezirk": "Pankow", "ortsteil": "Niederschönhausen", "plz": "13156", "strasse": "Rolandstraße", "hausnr": "35", "telefon": "+49 30 4450959", "fax": "+49 30 44738903", "email": "kontakt@isskd.de", "internet": "https://www.isskd.de" }, "geometry": { "type": "Point", "coordinates": [ 392783.599999999976717, 5826941.299999999813735 ] } },
{ "type": "Feature", "properties": { "fid": 56, "bsn": "03K04", "name": "Gustave-Eiffel-Schule", "schulart": "Integrierte Sekundarschule", "traeger": "öffentlich", "schultyp": "Integrierte Sekundarschule", "bezirk": "Pankow", "ortsteil": "Prenzlauer Berg", "plz": "10409", "strasse": "Hanns-Eisler-Straße", "hausnr": "78", "telefon": "+49 30 42809070", "fax": "+49 30 4280907109", "email": "sekretariat@ges.schule.berlin.de", "internet": "http://www.gustave-eiffel-schule.de/" }, "geometry": { "type": "Point", "coordinates": [ 394788.700000000011642, 5822321.299999999813735 ] } },
{ "type": "Feature", "properties": { "fid": 57, "bsn": "03K05", "name": "Heinz-Brandt-Schule", "schulart": "Integrierte Sekundarschule", "traeger": "öffentlich", "schultyp": "Integrierte Sekundarschule", "bezirk": "Pankow", "ortsteil": "Weißensee", "plz": "13086", "strasse": "Langhansstraße", "hausnr": "120", "telefon": "+49 30 9251208", "fax": "+49 30 9253132", "email": "kontakt@heinz-brandt-schule.de", "internet": "http://www.heinz-brandt-schule.de" }, "geometry": { "type": "Point", "coordinates": [ 394348.700000000011642, 5823486.0 ] } },
{ "type": "Feature", "properties": { "fid": 58, "bsn": "03K06", "name": "Reinhold-Burger-Schule", "schulart": "Integrierte Sekundarschule", "traeger": "öffentlich", "schultyp": "Integrierte Sekundarschule", "bezirk": "Pankow", "ortsteil": "Pankow", "plz": "13187", "strasse": "Neue Schönholzer Straße", "hausnr": "32", "telefon": "+49 30 49979940", "fax": "+49 30 49979948", "email": "Sekretariat@03k06.schule.berlin.de", "internet": "http://www.reinhold-burger-schule.de" }, "geometry": { "type": "Point", "coordinates": [ 391707.0, 5825425.700000000186265 ] } },
{ "type": "Feature", "properties": { "fid": 59, "bsn": "03K07", "name": "Tesla-Schule (Gemeinschaftsschule)", "schulart": "Gemeinschaftsschule", "traeger": "öffentlich", "schultyp": "Integrierte Sekundarschule", "bezirk": "Pankow", "ortsteil": "Prenzlauer Berg", "plz": "10407", "strasse": "Rudi-Arndt-Straße", "hausnr": "18", "telefon": "+49 30 4212230", "fax": "+49 30 4235995", "email": "sekretariat@tesla-schule.de", "internet": "https://www.tesla-schule.de" }, "geometry": { "type": "Point", "coordinates": [ 394593.400000000023283, 5821018.299999999813735 ] } },
{ "type": "Feature", "properties": { "fid": 60, "bsn": "03K08", "name": "Hagenbeck-Schule", "schulart": "Integrierte Sekundarschule", "traeger": "öffentlich", "schultyp": "Integrierte Sekundarschule", "bezirk": "Pankow", "ortsteil": "Weißensee", "plz": "13086", "strasse": "Gustav-Adolf-Straße", "hausnr": "60", "telefon": "+49 30 96275050", "fax": "+49 30 96275053", "email": "info@hagenbeck-schule.de", "internet": "http://www.hagenbeck-schule.de" }, "geometry": { "type": "Point", "coordinates": [ 394755.200000000011642, 5824334.099999999627471 ] } },
{ "type": "Feature", "properties": { "fid": 61, "bsn": "03K09", "name": "Janusz-Korczak-Schule (Integrierte Sekundarschule)", "schulart": "Integrierte Sekundarschule", "traeger": "öffentlich", "schultyp": "Integrierte Sekundarschule", "bezirk": "Pankow", "ortsteil": "Pankow", "plz": "13187", "strasse": "Dolomitenstraße", "hausnr": "94", "telefon": "+49 30 47909940", "fax": "+49 30 47909949", "email": "Janusz-Korczak-OR@web.de", "internet": "https://jks-pankow.de" }, "geometry": { "type": "Point", "coordinates": [ 392067.0, 5824857.299999999813735 ] } },
{ "type": "Feature", "properties": { "fid": 62, "bsn": "03K10", "name": "Hufeland-Schule (Integrierte Sekundarschule)", "schulart": "Integrierte Sekundarschule", "traeger": "öffentlich", "schultyp": "Integrierte Sekundarschule", "bezirk": "Pankow", "ortsteil": "Buch", "plz": "13125", "strasse": "Walter-Friedrich-Straße", "hausnr": "18", "telefon": "+49 30 94800610", "fax": "+49 30 94800618", "email": "sekretariat@hufelandschule.berlin", "internet": "https://www.hufelandschule.berlin" }, "geometry": { "type": "Point", "coordinates": [ 398011.700000000011642, 5832503.700000000186265 ] } },
{ "type": "Feature", "properties": { "fid": 63, "bsn": "03K11", "name": "Wilhelm-von-Humboldt-Gemeinschaftsschule", "schulart": "Gemeinschaftsschule", "traeger": "öffentlich", "schultyp": "Integrierte Sekundarschule", "bezirk": "Pankow", "ortsteil": "Prenzlauer Berg", "plz": "10439", "strasse": "Erich-Weinert-Straße", "hausnr": "70", "telefon": "+49 30 411983970", "fax": "+49 30 411983979", "email": "sekretariat@wvh-gemeinschaftsschule.de", "internet": "https://wvh-gemeinschaftsschule.de" }, "geometry": { "type": "Point", "coordinates": [ 393220.5, 5823247.0 ] } },
{ "type": "Feature", "properties": { "fid": 94, "bsn": "03S03", "name": "Helene-Haeusler-Schule", "schulart": "Förderschwerp. \"Geistige Entwicklung\"", "traeger": "öffentlich", "schultyp": "Schule mit sonderpädagogischem Förderschwerpunkt", "bezirk": "Pankow", "ortsteil": "Prenzlauer Berg", "plz": "10405", "strasse": "Mendelssohnstraße", "hausnr": "10", "telefon": "+49 30 47377641", "fax": "+49 30 47377640", "email": "sekretariat@helene-haeusler.schule.berlin.de", "internet": "http://www.helene-haeusler-schule.de" }, "geometry": { "type": "Point", "coordinates": [ 392771.5, 5820817.799999999813735 ] } },
{ "type": "Feature", "properties": { "fid": 95, "bsn": "03S06", "name": "Schule am Birkenhof", "schulart": "Förderschwerp. \"Lernen\"", "traeger": "öffentlich", "schultyp": "Schule mit sonderpädagogischem Förderschwerpunkt", "bezirk": "Pankow", "ortsteil": "Französisch Buchholz", "plz": "13127", "strasse": "Arnouxstraße", "hausnr": "18", "telefon": "+49 30 474029100", "fax": "+49 30 47411448", "email": "sekretariat@birkenhof.schule.berlin.de", "internet": "http://www.schule-am-birkenhof.de" }, "geometry": { "type": "Point", "coordinates": [ 393295.700000000011642, 5829839.5 ] } },
{ "type": "Feature", "properties": { "fid": 96, "bsn": "03S08", "name": "Panke-Schule", "schulart": "Förderschwerp. \"Geistige Entwicklung\"", "traeger": "öffentlich", "schultyp": "Schule mit sonderpädagogischem Förderschwerpunkt", "bezirk": "Pankow", "ortsteil": "Pankow", "plz": "13187", "strasse": "Klaustaler Straße", "hausnr": "21A", "telefon": "+49 30 47607920", "fax": "+49 30 47607921", "email": "kontakt@panke-schule.de", "internet": "http://www.panke-schule.de" }, "geometry": { "type": "Point", "coordinates": [ 392926.5, 5826563.0 ] } },
{ "type": "Feature", "properties": { "fid": 97, "bsn": "03S09", "name": "Schule an der Strauchwiese", "schulart": "Übrige Förderschwerpunkte", "traeger": "öffentlich", "schultyp": "Schule mit sonderpädagogischem Förderschwerpunkt", "bezirk": "Pankow", "ortsteil": "Pankow", "plz": "13187", "strasse": "Mendelstraße", "hausnr": "54", "telefon": "+49 30 47607930", "fax": "+49 30 47607931", "email": "info@schuleanderstrauchwiese.de", "internet": "http://www.schuleanderstrauchwiese.de" }, "geometry": { "type": "Point", "coordinates": [ 392786.799999999988358, 5826516.599999999627471 ] } },
{ "type": "Feature", "properties": { "fid": 98, "bsn": "03S10", "name": "Marianne-Buggenhagen-Schule", "schulart": "Übrige Förderschwerpunkte", "traeger": "öffentlich", "schultyp": "Schule mit sonderpädagogischem Förderschwerpunkt", "bezirk": "Pankow", "ortsteil": "Buch", "plz": "13125", "strasse": "Ernst-Busch-Straße", "hausnr": "29", "telefon": "+49 30 9487880", "fax": "+49 30 94878827", "email": "info.mbs-berlin@t-online.de", "internet": "https://www.buggenhagen-schule.de" }, "geometry": { "type": "Point", "coordinates": [ 397898.200000000011642, 5832100.099999999627471 ] } },
{ "type": "Feature", "properties": { "fid": 99, "bsn": "03Y03", "name": "Käthe-Kollwitz-Gymnasium", "schulart": "Gymnasium", "traeger": "öffentlich", "schultyp": "Gymnasium", "bezirk": "Pankow", "ortsteil": "Prenzlauer Berg", "plz": "10439", "strasse": "Dunckerstraße", "hausnr": "65", "telefon": "+49 30 4447671", "fax": "+49 30 4459794", "email": "sekretariat@kkos.net", "internet": "http://www.kkos.net" }, "geometry": { "type": "Point", "coordinates": [ 393083.400000000023283, 5822893.299999999813735 ] } },
{ "type": "Feature", "properties": { "fid": 100, "bsn": "03Y04", "name": "Heinrich-Schliemann-Gymnasium", "schulart": "Gymnasium", "traeger": "öffentlich", "schultyp": "Gymnasium", "bezirk": "Pankow", "ortsteil": "Prenzlauer Berg", "plz": "10439", "strasse": "Dunckerstraße", "hausnr": "64", "telefon": "+49 30 4468950", "fax": "+49 30 446895106", "email": "schulleitung@hsg-berlin.de", "internet": "http://www.hsg-berlin.de" }, "geometry": { "type": "Point", "coordinates": [ 393131.700000000011642, 5822975.599999999627471 ] } },
{ "type": "Feature", "properties": { "fid": 101, "bsn": "03Y08", "name": "Carl-von-Ossietzky-Gymnasium", "schulart": "Gymnasium", "traeger": "öffentlich", "schultyp": "Gymnasium", "bezirk": "Pankow", "ortsteil": "Pankow", "plz": "13187", "strasse": "Görschstraße", "hausnr": "42", "telefon": "+49 30 49400390", "fax": "+49 30 49400391", "email": "sekretariat@cvo.berlin", "internet": "http://cvo.berlin" }, "geometry": { "type": "Point", "coordinates": [ 391589.5, 5825243.0 ] } },
{ "type": "Feature", "properties": { "fid": 102, "bsn": "03Y10", "name": "Rosa-Luxemburg-Gymnasium", "schulart": "Gymnasium", "traeger": "öffentlich", "schultyp": "Gymnasium", "bezirk": "Pankow", "ortsteil": "Pankow", "plz": "13189", "strasse": "Kissingenstraße", "hausnr": "12", "telefon": "+49 30 91607730", "fax": "+49 30 91607731", "email": "sekretariat@rlg.berlin", "internet": "http://www.rlo-berlin.de" }, "geometry": { "type": "Point", "coordinates": [ 392881.299999999988358, 5825251.599999999627471 ] } },
{ "type": "Feature", "properties": { "fid": 103, "bsn": "03Y13", "name": "Felix-Mendelssohn-Bartholdy-Gymnasium", "schulart": "Gymnasium", "traeger": "öffentlich", "schultyp": "Gymnasium", "bezirk": "Pankow", "ortsteil": "Prenzlauer Berg", "plz": "10407", "strasse": "Pasteurstraße", "hausnr": "7", "telefon": "+49 30 420827400", "fax": "+49 30 420827404", "email": "sekretariat@fmbg.schule.berlin.de", "internet": "http://www.fmbg-berlin.de" }, "geometry": { "type": "Point", "coordinates": [ 393676.900000000023283, 5821598.700000000186265 ] } },
{ "type": "Feature", "properties": { "fid": 104, "bsn": "03Y14", "name": "Primo-Levi-Gymnasium", "schulart": "Gymnasium", "traeger": "öffentlich", "schultyp": "Gymnasium", "bezirk": "Pankow", "ortsteil": "Weißensee", "plz": "13086", "strasse": "Pistoriusstraße", "hausnr": "133", "telefon": "+49 30 9290168111", "fax": "+49 30 9290168110", "email": "sekretariat@plg-berlin.de", "internet": "http://www.plg-berlin.de" }, "geometry": { "type": "Point", "coordinates": [ 395195.900000000023283, 5823481.799999999813735 ] } },
{ "type": "Feature", "properties": { "fid": 105, "bsn": "03Y15", "name": "Max-Delbrück-Gymnasium", "schulart": "Gymnasium", "traeger": "öffentlich", "schultyp": "Gymnasium", "bezirk": "Pankow", "ortsteil": "Niederschönhausen", "plz": "13156", "strasse": "Kuckhoffstraße", "hausnr": "2", "telefon": "+49 30 47596720", "fax": "+49 30 4759672110", "email": "sekretariat@max-delbrueck-gymnasium.de", "internet": "https://max-delbrueck-gymnasium.de" }, "geometry": { "type": "Point", "coordinates": [ 391740.599999999976717, 5827174.5 ] } },
{ "type": "Feature", "properties": { "fid": 106, "bsn": "03Y16", "name": "Robert-Havemann-Gymnasium", "schulart": "Gymnasium", "traeger": "öffentlich", "schultyp": "Gymnasium", "bezirk": "Pankow", "ortsteil": "Karow", "plz": "13125", "strasse": "Achillesstraße", "hausnr": "79", "telefon": "+49 30 94878511", "fax": "+49 30 94878519", "email": "03Y16@03Y16.schule.berlin.de", "internet": "http://www.robert-havemann-gymnasium.de" }, "geometry": { "type": "Point", "coordinates": [ 397957.5, 5830634.299999999813735 ] } },
{ "type": "Feature", "properties": { "fid": 107, "bsn": "03Y17", "name": "Gymnasium am Europasportpark", "schulart": "Gymnasium", "traeger": "öffentlich", "schultyp": "Gymnasium", "bezirk": "Pankow", "ortsteil": "Prenzlauer Berg", "plz": "10407", "strasse": "Kniprodestraße", "hausnr": "29", "telefon": "+49 30 405771260", "fax": "+49 30 405771269", "email": "sekretariat@gesp-berlin.de", "internet": "http://www.gesp-berlin.de" }, "geometry": { "type": "Point", "coordinates": [ 394744.700000000011642, 5821620.799999999813735 ] } }
]
}
